{
    "links": {
        "self": "http://www.neowsapp.com/rest/v1/neo/3552690?api_key=iIulBulltgU6a56xZRHN4H3l9WmuAYTsLGpBGhQ2"
    },
    "id": "3552690",
    "neo_reference_id": "3552690",
    "name": "(2010 XO)",
    "designation": "2010 XO",
    "nasa_jpl_url": "http://ssd.jpl.nasa.gov/sbdb.cgi?sstr=3552690",
    "absolute_magnitude_h": 26.147,
    "estimated_diameter": {
        "kilometers": {
            "estimated_diameter_min": 0.0156731026,
            "estimated_diameter_max": 0.0350461228
        },
        "meters": {
            "estimated_diameter_min": 15.6731026002,
            "estimated_diameter_max": 35.0461228323
        },
        "miles": {
            "estimated_diameter_min": 0.0097388114,
            "estimated_diameter_max": 0.0217766444
        },
        "feet": {
            "estimated_diameter_min": 51.4209419348,
            "estimated_diameter_max": 114.9807216333
        }
    },
    "is_potentially_hazardous_asteroid": false,
    "close_approach_data": [
        {
            "close_approach_date": "2010-12-04",
            "close_approach_date_full": "2010-Dec-04 03:54",
            "epoch_date_close_approach": 1291434840000,
            "relative_velocity": {
                "kilometers_per_second": "5.356684183",
                "kilometers_per_hour": "19284.0630588564",
                "miles_per_hour": "11982.3668489878"
            },
            "miss_distance": {
                "astronomical": "0.0246409572",
                "lunar": "9.5853323508",
                "kilometers": "3686234.711881164",
                "miles": "2290520.0371375032"
            },
            "orbiting_body": "Earth"
        }
    ],
    "orbital_data": {
        "orbit_id": "7",
        "orbit_determination_date": "2017-04-06 08:55:27",
        "first_observation_date": "2010-12-02",
        "last_observation_date": "2010-12-02",
        "data_arc_in_days": null,
        "observations_used": 19,
        "orbit_uncertainty": "9",
        "minimum_orbit_intersection": ".0123557",
        "jupiter_tisserand_invariant": "4.933",
        "epoch_osculation": "2455532.5",
        "eccentricity": ".2409499126531101",
        "semi_major_axis": "1.311937623865705",
        "inclination": "7.113064116912226",
        "ascending_node_longitude": "248.7223887204921",
        "orbital_period": "548.8683740585218",
        "perihelion_distance": ".995826367988935",
        "perihelion_argument": "169.2938014819502",
        "aphelion_distance": "1.628048879742476",
        "perihelion_time": "2455523.208447990118",
        "mean_anomaly": "6.094282129654772",
        "mean_motion": ".6558949595474705",
        "equinox": "J2000",
        "orbit_class": {
            "orbit_class_type": "APO",
            "orbit_class_description": "Near-Earth asteroid orbits which cross the Earth’s orbit similar to that of 1862 Apollo",
            "orbit_class_range": "a (semi-major axis) > 1.0 AU; q (perihelion) < 1.017 AU"
        }
    },
    "is_sentry_object": false
}